[{"OBJECT_NAME":"STARLINK-5772","OBJECT_ID":"2023-042AQ","EPOCH":"2026-03-09T23:19:15.524544","MEAN_MOTION":15.02641737,"ECCENTRICITY":0.0001064,"INCLINATION":43.007,"RA_OF_ASC_NODE":41.4855,"ARG_OF_PERICENTER":311.1431,"MEAN_ANOMALY":48.932,"EPHEMERIS_TYPE":0,"CLASSIFICATION_TYPE":"U","NORAD_CAT_ID":56024,"ELEMENT_SET_NO":999,"REV_AT_EPOCH":16310,"BSTAR":0.00095049441,"MEAN_MOTION_DOT":0.00012695,"MEAN_MOTION_DDOT":0},{"OBJECT_NAME":"COSMOS 2251 DEB","OBJECT_ID":"1993-036BSM","EPOCH":"2026-03-05T18:25:12.242784","MEAN_MOTION":14.77934954,"ECCENTRICITY":0.01163021,"INCLINATION":73.9376,"RA_OF_ASC_NODE":193.5346,"ARG_OF_PERICENTER":49.2659,"MEAN_ANOMALY":311.8542,"EPHEMERIS_TYPE":0,"CLASSIFICATION_TYPE":"U","NORAD_CAT_ID":38197,"ELEMENT_SET_NO":999,"REV_AT_EPOCH":86980,"BSTAR":0.0037051809,"MEAN_MOTION_DOT":0.00029983,"MEAN_MOTION_DDOT":0}]
